NORAD_CAT_ID,OBJECT_NAME,OBJECT_TYPE,EPOCH,MEAN_MOTION,ECCENTRICITY,INCLINATION,RA_OF_ASC_NODE,ARG_OF_PERICENTER,MEAN_ANOMALY,BSTAR,MEAN_MOTION_DOT,MEAN_MOTION_DDOT,TLE_LINE0,TLE_LINE1,TLE_LINE2,SEMIMAJOR_AXIS,PERIOD,APOGEE,PERIGEE,DECAYED
53743.0,STARLINK-4645,PAYLOAD,2023-08-28 20:22:55,15.08820855,0.000158,53.2164,91.489,87.8457,272.2716,-0.00012506,-2.277e-05,0.0,0 STARLINK-4645,1 53743U 22107AV  23240.84925850 -.00002277  00000-0 -12506-3 0  9993,2 53743  53.2164  91.4890 0001580  87.8457 272.2716 15.08820855 55121,6917.939,95.439,540.897,538.711,0.0
53743.0,STARLINK-4645,PAYLOAD,2023-08-29 07:30:37,15.0882809,0.0001574,53.2172,89.4069,88.0633,272.0539,-5.8555e-05,-1.219e-05,0.0,0 STARLINK-4645,1 53743U 22107AV  23241.31293659 -.00001219  00000-0 -58555-4 0  9991,2 53743  53.2172  89.4069 0001574  88.0633 272.0539 15.08828090 54418,6917.917,95.438,540.871,538.693,0.0
53743.0,STARLINK-4645,PAYLOAD,2023-08-29 20:13:42,15.08849832,0.0001491,53.2173,87.0276,87.983,272.1332,-0.00018839,-3.286e-05,0.0,0 STARLINK-4645,1 53743U 22107AV  23241.84284980 -.00003286  00000-0 -18839-3 0  9992,2 53743  53.2173  87.0276 0001491  87.9830 272.1332 15.08849832 55272,6917.85,95.437,540.747,538.684,0.0
53743.0,STARLINK-4645,PAYLOAD,2023-08-30 18:29:05,15.0883806,0.0001693,53.2178,82.8643,90.1818,269.9368,0.0003557,5.377e-05,0.0,0 STARLINK-4645,1 53743U 22107AV  23242.77020701  .00005377  00000-0  35570-3 0  9996,2 53743  53.2178  82.8643 0001693  90.1818 269.9368 15.08838060 55414,6917.886,95.438,540.923,538.58,0.0
53743.0,STARLINK-4645,PAYLOAD,2023-08-30 23:15:14,15.08848531,0.0001655,53.2179,81.9716,92.3626,267.7556,0.00038138,5.788e-05,0.0,0 STARLINK-4645,1 53743U 22107AV  23242.96892199  .00005788  00000-0  38138-3 0  9994,2 53743  53.2179  81.9716 0001655  92.3626 267.7556 15.08848531 54660,6917.854,95.437,540.864,538.574,0.0
53743.0,STARLINK-4645,PAYLOAD,2023-08-31 11:58:20,15.08857075,0.0001864,53.2173,79.5943,90.6967,269.4239,0.00030634,4.593e-05,0.0,0 STARLINK-4645,1 53743U 22107AV  23243.49884264  .00004593  00000-0  30634-3 0  9993,2 53743  53.2173  79.5943 0001864  90.6967 269.4239 15.08857075 55526,6917.828,95.436,540.983,538.404,0.0
53743.0,STARLINK-4645,PAYLOAD,2023-08-31 23:06:01,15.08853862,0.0001784,53.2157,77.513,83.1901,276.9294,0.00014036,1.947e-05,0.0,0 STARLINK-4645,1 53743U 22107AV  23243.96252212  .00001947  00000-0  14036-3 0  9995,2 53743  53.2157  77.5130 0001784  83.1901 276.9294 15.08853862 54815,6917.838,95.437,540.937,538.469,0.0
53743.0,STARLINK-4645,PAYLOAD,2023-09-01 05:27:34,15.08848198,0.0001118,53.2147,76.3199,108.8859,251.2254,4.7239e-05,4.64e-06,0.0,0 STARLINK-4645,1 53743U 22107AV  23244.22748026  .00000464  00000-0  47239-4 0  9993,2 53743  53.2147  76.3199 0001118 108.8859 251.2254 15.08848198 54856,6917.855,95.437,540.494,538.947,0.0
53743.0,STARLINK-4645,PAYLOAD,2023-09-01 13:24:30,15.08829034,0.0001687,53.2154,74.8346,100.6305,259.4877,0.00025726,3.807e-05,0.0,0 STARLINK-4645,1 53743U 22107AV  23244.55868812  .00003807  00000-0  25726-3 0  9995,2 53743  53.2154  74.8346 0001687 100.6305 259.4877 15.08829034 55689,6917.914,95.438,540.946,538.612,0.0
53743.0,STARLINK-4645,PAYLOAD,2023-09-01 19:46:02,15.08854158,0.0001475,53.2141,73.6452,96.7779,263.3381,-6.1436e-05,-1.266e-05,0.0,0 STARLINK-4645,1 53743U 22107AV  23244.82364027 -.00001266  00000-0 -61436-4 0  9992,2 53743  53.2141  73.6452 0001475  96.7779 263.3381 15.08854158 55729,6917.837,95.437,540.722,538.682,0.0
53743.0,STARLINK-4645,PAYLOAD,2023-09-02 05:18:21,15.08848646,0.0001411,53.2162,71.8621,94.1394,265.976,-5.8764e-05,-1.223e-05,0.0,0 STARLINK-4645,1 53743U 22107AV  23245.22108204 -.00001223  00000-0 -58764-4 0  9993,2 53743  53.2162  71.8621 0001411  94.1394 265.9760 15.08848646 55000,6917.854,95.437,540.695,538.743,0.0
53743.0,STARLINK-4645,PAYLOAD,2023-09-02 11:39:54,15.08840732,0.0001582,53.2148,70.6728,91.2204,268.897,-5.0695e-06,-3.69e-06,0.0,0 STARLINK-4645,1 53743U 22107AV  23245.48604677 -.00000369  00000-0 -50695-5 0  9992,2 53743  53.2148  70.6728 0001582  91.2204 268.8970 15.08840732 55829,6917.878,95.438,540.838,538.649,0.0
53743.0,STARLINK-4645,PAYLOAD,2023-09-02 21:12:13,15.08835231,0.0002054,53.217,68.8889,97.4339,262.6887,0.00012074,1.634e-05,0.0,0 STARLINK-4645,1 53743U 22107AV  23245.88348939  .00001634  00000-0  12074-3 0  9993,2 53743  53.2170  68.8889 0002054  97.4339 262.6887 15.08835231 55886,6917.895,95.438,541.181,538.339,0.0
53743.0,STARLINK-4645,PAYLOAD,2023-09-03 05:09:08,15.08840627,0.0001446,53.2178,67.4019,93.9474,266.1684,0.0001648,2.336e-05,0.0,0 STARLINK-4645,1 53743U 22107AV  23246.21468525  .00002336  00000-0  16480-3 0  9990,2 53743  53.2178  67.4019 0001446  93.9474 266.1684 15.08840627 55934,6917.878,95.438,540.744,538.743,0.0
53743.0,STARLINK-4645,PAYLOAD,2023-09-03 21:02:59,15.08846044,0.000141,53.217,64.4277,91.897,268.2184,0.00016746,2.379e-05,0.0,0 STARLINK-4645,1 53743U 22107AV  23246.87708159  .00002379  00000-0  16746-3 0  9994,2 53743  53.2170  64.4277 0001410  91.8970 268.2184 15.08846044 55250,6917.862,95.437,540.702,538.751,0.0
53743.0,STARLINK-4645,PAYLOAD,2023-09-04 11:21:28,15.08834876,0.0001411,53.217,61.7517,90.5677,269.5476,0.00010099,1.319e-05,0.0,0 STARLINK-4645,1 53743U 22107AV  23247.47324869  .00001319  00000-0  10099-3 0  9991,2 53743  53.2170  61.7517 0001411  90.5677 269.5476 15.08834876 56123,6917.896,95.438,540.737,538.785,0.0
53743.0,STARLINK-4645,PAYLOAD,2023-09-04 17:43:01,15.08834733,0.0001415,53.2171,60.5621,90.3832,269.7323,8.4772e-05,1.061e-05,0.0,0 STARLINK-4645,1 53743U 22107AV  23247.73821002  .00001061  00000-0  84772-4 0  9995,2 53743  53.2171  60.5621 0001415  90.3832 269.7323 15.08834733 55384,6917.896,95.438,540.74,538.783,0.0
53743.0,STARLINK-4645,PAYLOAD,2023-09-05 04:50:43,15.08837471,0.0001415,53.2169,58.4799,89.317,270.7984,4.7024e-05,4.6e-06,0.0,0 STARLINK-4645,1 53743U 22107AV  23248.20188966  .00000460  00000-0  47024-4 0  9994,2 53743  53.2169  58.4799 0001415  89.3170 270.7984 15.08837471 56238,6917.888,95.438,540.732,538.774,0.0
53743.0,STARLINK-4645,PAYLOAD,2023-09-06 04:41:30,15.08845532,0.0001288,53.2171,54.0188,91.4578,268.6562,0.00017514,2.501e-05,0.0,0 STARLINK-4645,1 53743U 22107AV  23249.19548654  .00002501  00000-0  17514-3 0  9995,2 53743  53.2171  54.0188 0001288  91.4578 268.6562 15.08845532 55604,6917.863,95.437,540.62,538.837,0.0
53743.0,STARLINK-4645,PAYLOAD,2023-09-06 11:03:02,15.08841045,0.0001331,53.2173,52.8297,90.6385,269.476,0.00019095,2.752e-05,0.0,0 STARLINK-4645,1 53743U 22107AV  23249.46044947  .00002752  00000-0  19095-3 0  9995,2 53743  53.2173  52.8297 0001331  90.6385 269.4760 15.08841045 56424,6917.877,95.437,540.663,538.821,0.0
53743.0,STARLINK-4645,PAYLOAD,2023-09-06 17:24:35,15.08841087,0.0001306,53.2178,51.6402,90.6178,269.4964,0.00028824,4.303e-05,0.0,0 STARLINK-4645,1 53743U 22107AV  23249.72540985  .00004303  00000-0  28824-3 0  9991,2 53743  53.2178  51.6402 0001306  90.6178 269.4964 15.08841087 55685,6917.877,95.437,540.646,538.839,0.0
53743.0,STARLINK-4645,PAYLOAD,2023-09-06 22:10:44,15.08852492,0.0001343,53.2173,50.7487,87.6661,272.4485,0.00028041,4.179e-05,0.0,0 STARLINK-4645,1 53743U 22107AV  23249.92412315  .00004179  00000-0  28041-3 0  9990,2 53743  53.2173  50.7487 0001343  87.6661 272.4485 15.08852492 55715,6917.842,95.437,540.636,538.778,0.0
53743.0,STARLINK-4645,PAYLOAD,2023-09-07 10:53:49,15.08838985,0.0001308,53.2172,48.3697,94.8264,265.2878,3.2123e-05,2.23e-06,0.0,0 STARLINK-4645,1 53743U 22107AV  23250.45404929  .00000223  00000-0  32123-4 0  9995,2 53743  53.2172  48.3697 0001308  94.8264 265.2878 15.08838985 55795,6917.883,95.438,540.653,538.844,0.0
53743.0,STARLINK-4645,PAYLOAD,2023-09-08 13:55:23,15.08842562,0.0001783,53.2165,43.3119,103.135,256.9841,-6.8621e-06,-3.97e-06,0.0,0 STARLINK-4645,1 53743U 22107AV  23251.58012805 -.00000397  00000-0 -68621-5 0  9995,2 53743  53.2165  43.3119 0001783 103.1350 256.9841 15.08842562 56747,6917.873,95.437,540.971,538.504,0.0
53743.0,STARLINK-4645,PAYLOAD,2023-09-08 18:41:32,15.08842867,0.0001272,53.2179,42.4229,94.6874,265.4263,6.7019e-05,7.79e-06,0.0,0 STARLINK-4645,1 53743U 22107AV  23251.77884820  .00000779  00000-0  67019-4 0  9991,2 53743  53.2179  42.4229 0001272  94.6874 265.4263 15.08842867 55999,6917.872,95.437,540.617,538.857,0.0
53743.0,STARLINK-4645,PAYLOAD,2023-09-08 20:16:55,15.08844216,0.0001361,53.2178,42.1249,99.1525,260.9621,9.0442e-05,1.152e-05,0.0,0 STARLINK-4645,1 53743U 22107AV  23251.84508750  .00001152  00000-0  90442-4 0  9996,2 53743  53.2178  42.1249 0001361  99.1525 260.9621 15.08844216 56785,6917.868,95.437,540.674,538.791,0.0
53743.0,STARLINK-4645,PAYLOAD,2023-09-09 10:35:24,15.08834125,0.0001295,53.218,39.4489,94.6893,265.4248,5.4959e-05,5.87e-06,0.0,0 STARLINK-4645,1 53743U 22107AV  23252.44125405  .00000587  00000-0  54959-4 0  9999,2 53743  53.2180  39.4489 0001295  94.6893 265.4248 15.08834125 56094,6917.898,95.438,540.659,538.867,0.0
53743.0,STARLINK-4645,PAYLOAD,2023-09-09 13:46:09,15.08862782,0.000144,53.219,38.8542,86.7873,273.3284,-0.00033014,-5.542e-05,0.0,0 STARLINK-4645,1 53743U 22107AV  23252.57372308 -.00005542  00000-0 -33014-3 0  9995,2 53743  53.2190  38.8542 0001440  86.7873 273.3284 15.08862782 56896,6917.811,95.436,540.672,538.68,0.0
53743.0,STARLINK-4645,PAYLOAD,2023-09-09 16:56:56,15.08841389,0.0001231,53.2184,38.2595,90.6546,269.4587,0.00015938,2.25e-05,0.0,0 STARLINK-4645,1 53743U 22107AV  23252.70621116  .00002250  00000-0  15938-3 0  9990,2 53743  53.2184  38.2595 0001231  90.6546 269.4587 15.08841389 56139,6917.876,95.437,540.593,538.89,0.0
53743.0,STARLINK-4645,PAYLOAD,2023-09-10 13:36:57,15.088429,0.0001322,53.2181,34.3942,95.3474,264.7669,0.00010487,1.382e-05,0.0,0 STARLINK-4645,1 53743U 22107AV  23253.56733078  .00001382  00000-0  10487-3 0  9995,2 53743  53.2181  34.3942 0001322  95.3474 264.7669 15.08842900 57042,6917.872,95.437,540.651,538.822,0.0
